{
  "links" : {
    "next" : "https://api.nasa.gov/neo/rest/v1/neo/browse?page=1&size=20&api_key=VHdG74iewJt6gyGwpbRICNAoAKGTFjbpH9JqMNJB",
    "self" : "https://api.nasa.gov/neo/rest/v1/neo/browse?page=0&size=20&api_key=VHdG74iewJt6gyGwpbRICNAoAKGTFjbpH9JqMNJB"
  },
  "page" : {
    "size" : 20,
    "total_elements" : 20676,
    "total_pages" : 1034,
    "number" : 0
  },
  "near_earth_objects" : [ {
    "links" : {
      "self" : "https://api.nasa.gov/neo/rest/v1/neo/2322913?api_key=VHdG74iewJt6gyGwpbRICNAoAKGTFjbpH9JqMNJB"
    },
    "neo_reference_id" : "2322913",
    "name" : "322913 (2002 CM1)",
    "designation" : "322913",
    "nasa_jpl_url" : "http://ssd.jpl.nasa.gov/sbdb.cgi?sstr=2322913",
    "absolute_magnitude_h" : 16.7,
    "estimated_diameter" : {
      "kilometers" : {
        "estimated_diameter_min" : 1.214940408,
        "estimated_diameter_max" : 2.7166893409
      },
      "meters" : {
        "estimated_diameter_min" : 1214.9404079963,
        "estimated_diameter_max" : 2716.6893408911
      },
      "miles" : {
        "estimated_diameter_min" : 0.7549287363,
        "estimated_diameter_max" : 1.6880719724
      },
      "feet" : {
        "estimated_diameter_min" : 3986.0250881707,
        "estimated_diameter_max" : 8913.0230571693
      }
    },
    "is_potentially_hazardous_asteroid" : false,
    "close_approach_data" : [ ],
    "orbital_data" : {
      "orbit_id" : "47",
      "orbit_determination_date" : "2019-01-31 08:16:35",
      "first_observation_date" : "2002-02-03",
      "last_observation_date" : "2019-01-24",
      "data_arc_in_days" : 6199,
      "observations_used" : 139,
      "orbit_uncertainty" : "0",
      "minimum_orbit_intersection" : ".57806",
      "jupiter_tisserand_invariant" : "3.096",
      "epoch_osculation" : "2458600.5",
      "eccentricity" : ".4617908209783335",
      "semi_major_axis" : "2.299945358503197",
      "inclination" : "44.99634533645162",
      "ascending_node_longitude" : "308.1374043430649",
      "orbital_period" : "1274.015478084471",
      "perihelion_distance" : "1.237851703194699",
      "perihelion_argument" : "84.2306609125019",
      "aphelion_distance" : "3.362039013811696",
      "perihelion_time" : "2458482.208997305941",
      "mean_anomaly" : "33.42562292405494",
      "mean_motion" : ".282571135274803",
      "equinox" : "J2000",
      "orbit_class" : {
        "orbit_class_type" : "AMO",
        "orbit_class_range" : "1.017 AU < q (perihelion) < 1.3 AU",
        "orbit_class_description" : "Near-Earth asteroid orbits similar to that of 1221 Amor"
      }
    },
    "is_sentry_object" : false
  }, {
    "links" : {
      "self" : "https://api.nasa.gov/neo/rest/v1/neo/2435730?api_key=VHdG74iewJt6gyGwpbRICNAoAKGTFjbpH9JqMNJB"
    },
    "neo_reference_id" : "2435730",
    "name" : "435730 (2008 UK90)",
    "designation" : "435730",
    "nasa_jpl_url" : "http://ssd.jpl.nasa.gov/sbdb.cgi?sstr=2435730",
    "absolute_magnitude_h" : 18.9,
    "estimated_diameter" : {
      "kilometers" : {
        "estimated_diameter_min" : 0.4411182,
        "estimated_diameter_max" : 0.9863702813
      },
      "meters" : {
        "estimated_diameter_min" : 441.1181999969,
        "estimated_diameter_max" : 986.3702813054
      },
      "miles" : {
        "estimated_diameter_min" : 0.2740980571,
        "estimated_diameter_max" : 0.6129018881
      },
      "feet" : {
        "estimated_diameter_min" : 1447.2382352778,
        "estimated_diameter_max" : 3236.1230737181
      }
    },
    "is_potentially_hazardous_asteroid" : false,
    "close_approach_data" : [ ],
    "orbital_data" : {
      "orbit_id" : "21",
      "orbit_determination_date" : "2017-04-12 06:15:44",
      "first_observation_date" : "2007-08-15",
      "last_observation_date" : "2015-06-08",
      "data_arc_in_days" : 2854,
      "observations_used" : 62,
      "orbit_uncertainty" : "1",
      "minimum_orbit_intersection" : ".562024",
      "jupiter_tisserand_invariant" : "3.545",
      "epoch_osculation" : "2458600.5",
      "eccentricity" : ".3712689877166617",
      "semi_major_axis" : "2.003475856831421",
      "inclination" : "34.65524087548136",
      "ascending_node_longitude" : "48.8218141100409",
      "orbital_period" : "1035.796875865287",
      "perihelion_distance" : "1.259647403550848",
      "perihelion_argument" : "91.37395287853596",
      "aphelion_distance" : "2.747304310111994",
      "perihelion_time" : "2459079.247044206401",
      "mean_anomaly" : "193.6073993558566",
      "mean_motion" : ".3475584918126559",
      "equinox" : "J2000",
      "orbit_class" : {
        "orbit_class_type" : "AMO",
        "orbit_class_range" : "1.017 AU < q (perihelion) < 1.3 AU",
        "orbit_class_description" : "Near-Earth asteroid orbits similar to that of 1221 Amor"
      }
    },
    "is_sentry_object" : false
  }, {
    "links" : {
      "self" : "https://api.nasa.gov/neo/rest/v1/neo/2451297?api_key=VHdG74iewJt6gyGwpbRICNAoAKGTFjbpH9JqMNJB"
    },
    "neo_reference_id" : "2451297",
    "name" : "451297 (2010 TK54)",
    "designation" : "451297",
    "nasa_jpl_url" : "http://ssd.jpl.nasa.gov/sbdb.cgi?sstr=2451297",
    "absolute_magnitude_h" : 19.2,
    "estimated_diameter" : {
      "kilometers" : {
        "estimated_diameter_min" : 0.3841978911,
        "estimated_diameter_max" : 0.8590926012
      },
      "meters" : {
        "estimated_diameter_min" : 384.1978910643,
        "estimated_diameter_max" : 859.0926012318
      },
      "miles" : {
        "estimated_diameter_min" : 0.2387294278,
        "estimated_diameter_max" : 0.5338152287
      },
      "feet" : {
        "estimated_diameter_min" : 1260.4918089193,
        "estimated_diameter_max" : 2818.5453698252
      }
    },
    "is_potentially_hazardous_asteroid" : true,
    "close_approach_data" : [ ],
    "orbital_data" : {
      "orbit_id" : "24",
      "orbit_determination_date" : "2017-04-06 09:20:08",
      "first_observation_date" : "2010-10-08",
      "last_observation_date" : "2015-11-09",
      "data_arc_in_days" : 1858,
      "observations_used" : 69,
      "orbit_uncertainty" : "1",
      "minimum_orbit_intersection" : ".0138983",
      "jupiter_tisserand_invariant" : "3.715",
      "epoch_osculation" : "2458600.5",
      "eccentricity" : ".4951687211553038",
      "semi_major_axis" : "1.840484178151614",
      "inclination" : "30.80179064946347",
      "ascending_node_longitude" : "28.17719239723301",
      "orbital_period" : "912.0036141941391",
      "perihelion_distance" : ".9291339813497091",
      "perihelion_argument" : "222.9528375699591",
      "aphelion_distance" : "2.751834374953519",
      "perihelion_time" : "2458887.829380171751",
      "mean_anomaly" : "246.5809572989135",
      "mean_motion" : ".3947352777961321",
      "equinox" : "J2000",
      "orbit_class" : {
        "orbit_class_type" : "APO",
        "orbit_class_range" : "a (semi-major axis) > 1.0 AU; q (perihelion) < 1.017 AU",
        "orbit_class_description" : "Near-Earth asteroid orbits which cross the Earth’s orbit similar to that of 1862 Apollo"
      }
    },
    "is_sentry_object" : false
  }, {
    "links" : {
      "self" : "https://api.nasa.gov/neo/rest/v1/neo/2452307?api_key=VHdG74iewJt6gyGwpbRICNAoAKGTFjbpH9JqMNJB"
    },
    "neo_reference_id" : "2452307",
    "name" : "452307 Manawydan (1997 XV11)",
    "name_limited" : "Manawydan",
    "designation" : "452307",
    "nasa_jpl_url" : "http://ssd.jpl.nasa.gov/sbdb.cgi?sstr=2452307",
    "absolute_magnitude_h" : 18.3,
    "estimated_diameter" : {
      "kilometers" : {
        "estimated_diameter_min" : 0.5815070396,
        "estimated_diameter_max" : 1.30028927
      },
      "meters" : {
        "estimated_diameter_min" : 581.5070396458,
        "estimated_diameter_max" : 1300.2892700427
      },
      "miles" : {
        "estimated_diameter_min" : 0.3613316107,
        "estimated_diameter_max" : 0.807962044
      },
      "feet" : {
        "estimated_diameter_min" : 1907.8315559515,
        "estimated_diameter_max" : 4266.0410487267
      }
    },
    "is_potentially_hazardous_asteroid" : false,
    "close_approach_data" : [ ],
    "orbital_data" : {
      "orbit_id" : "42",
      "orbit_determination_date" : "2017-04-06 09:20:07",
      "first_observation_date" : "1997-12-05",
      "last_observation_date" : "2016-04-20",
      "data_arc_in_days" : 6711,
      "observations_used" : 132,
      "orbit_uncertainty" : "0",
      "minimum_orbit_intersection" : ".583599",
      "jupiter_tisserand_invariant" : "3.600",
      "epoch_osculation" : "2458600.5",
      "eccentricity" : ".317787609809808",
      "semi_major_axis" : "1.867375496846344",
      "inclination" : "44.2672269477857",
      "ascending_node_longitude" : "241.2538141369767",
      "orbital_period" : "932.0643787492497",
      "perihelion_distance" : "1.273946701086142",
      "perihelion_argument" : "270.1972387187312",
      "aphelion_distance" : "2.460804292606546",
      "perihelion_time" : "2458381.689596665328",
      "mean_anomaly" : "84.51320208823665",
      "mean_motion" : ".3862394145810926",
      "equinox" : "J2000",
      "orbit_class" : {
        "orbit_class_type" : "AMO",
        "orbit_class_range" : "1.017 AU < q (perihelion) < 1.3 AU",
        "orbit_class_description" : "Near-Earth asteroid orbits similar to that of 1221 Amor"
      }
    },
    "is_sentry_object" : false
  } ]
}